{"type": "FeatureCollection", "features": [ {"type": "Feature", "properties": {"norad_id": 36269, "name": "FENGYUN 1C DEB", "group": "fengyun-1c-debris", "lat": -67.2320382324436, "lon": -59.7425580960033, "alt_km": 650.1413191425308, "timestamp": "2025-12-02T06:27:53.301813+00:00", "meta": {"OBJECT_NAME": "FENGYUN 1C DEB", "OBJECT_ID": "1999-025DWW", "EPOCH": "2025-12-01T13:56:45.691296", "MEAN_MOTION": 14.26937631, "ECCENTRICITY": 0.02337858, "INCLINATION": 99.1061, "RA_OF_ASC_NODE": 277.0743, "ARG_OF_PERICENTER": 312.1017, "MEAN_ANOMALY": 46.0492, "EPHEMERIS_TYPE": 0, "CLASSIFICATION_TYPE": "U", "NORAD_CAT_ID": 36269, "ELEMENT_SET_NO": 999, "REV_AT_EPOCH": 87557, "BSTAR": 0.0011932552, "MEAN_MOTION_DOT": 3.82e-05, "MEAN_MOTION_DDOT": 0}, "tle": {"line1": "1 36269U 99025DWW 25335.58108439  .00003820  00000+0  11933-2 0  9998", "line2": "2 36269  99.1061 277.0743 0233785 312.1017  46.0492 14.26937631875576"}}, "geometry": {"type": "Point", "coordinates": [-59.7425580960033, -67.2320382324436]}}, {"type": "Feature", "properties": {"norad_id": 36272, "name": "FENGYUN 1C DEB", "group": "fengyun-1c-debris", "lat": 26.974438577685863, "lon": -152.44501628628944, "alt_km": 830.4810852435967, "timestamp": "2025-12-02T06:27:53.301823+00:00", "meta": {"OBJECT_NAME": "FENGYUN 1C DEB", "OBJECT_ID": "1999-025DWZ", "EPOCH": "2025-11-16T09:05:49.301376", "MEAN_MOTION": 14.17162339, "ECCENTRICITY": 0.01691484, "INCLINATION": 99.1396, "RA_OF_ASC_NODE": 195.9187, "ARG_OF_PERICENTER": 342.9224, "MEAN_ANOMALY": 16.6299, "EPHEMERIS_TYPE": 0, "CLASSIFICATION_TYPE": "U", "NORAD_CAT_ID": 36272, "ELEMENT_SET_NO": 999, "REV_AT_EPOCH": 63243, "BSTAR": 0.00092343066, "MEAN_MOTION_DOT": 2.094e-05, "MEAN_MOTION_DDOT": 0}, "tle": {"line1": "1 36272U 99025DWZ 25320.37904284  .00002094  00000+0  92343-3 0  9992", "line2": "2 36272  99.1396 195.9187 0169148 342.9224  16.6299 14.17162339632432"}}, "geometry": {"type": "Point", "coordinates": [-152.44501628628944, 26.974438577685863]}}, {"type": "Feature", "properties": {"norad_id": 36273, "name": "FENGYUN 1C DEB", "group": "fengyun-1c-debris", "lat": 32.75149294941947, "lon": -161.36286886811664, "alt_km": 767.440618245113, "timestamp": "2025-12-02T06:27:53.301833+00:00", "meta": {"OBJECT_NAME": "FENGYUN 1C DEB", "OBJECT_ID": "1999-025DXA", "EPOCH": "2025-11-02T21:06:05.135904", "MEAN_MOTION": 14.1649612, "ECCENTRICITY": 0.0097486, "INCLINATION": 99.6087, "RA_OF_ASC_NODE": 173.189, "ARG_OF_PERICENTER": 98.9958, "MEAN_ANOMALY": 262.2262, "EPHEMERIS_TYPE": 0, "CLASSIFICATION_TYPE": "U", "NORAD_CAT_ID": 36273, "ELEMENT_SET_NO": 999, "REV_AT_EPOCH": 65669, "BSTAR": 0.00031090406, "MEAN_MOTION_DOT": 5.98e-06, "MEAN_MOTION_DDOT": 0}, "tle": {"line1": "1 36273U 99025DXA 25306.87922611  .00000598  00000+0  31090-3 0  9995", "line2": "2 36273  99.6087 173.1890 0097486  98.9958 262.2262 14.16496120656691"}}, "geometry": {"type": "Point", "coordinates": [-161.36286886811664, 32.75149294941947]}}, {"type": "Feature", "properties": {"norad_id": 36274, "name": "FENGYUN 1C DEB", "group": "fengyun-1c-debris", "lat": 27.81103034405664, "lon": -125.10115441479785, "alt_km": 826.5973871073948, "timestamp": "2025-12-02T06:27:53.301843+00:00", "meta": {"OBJECT_NAME": "FENGYUN 1C DEB", "OBJECT_ID": "1999-025DXB", "EPOCH": "2025-12-01T11:15:57.514752", "MEAN_MOTION": 14.23229566, "ECCENTRICITY": 0.00617312, "INCLINATION": 99.1394, "RA_OF_ASC_NODE": 49.1975, "ARG_OF_PERICENTER": 261.9313, "MEAN_ANOMALY": 114.0627, "EPHEMERIS_TYPE": 0, "CLASSIFICATION_TYPE": "U", "NORAD_CAT_ID": 36274, "ELEMENT_SET_NO": 999, "REV_AT_EPOCH": 62825, "BSTAR": 0.0029611742, "MEAN_MOTION_DOT": 6.789e-05, "MEAN_MOTION_DDOT": 0}, "tle": {"line1": "1 36274U 99025DXB 25335.46941568  .00006789  00000+0  29612-2 0  9999", "line2": "2 36274  99.1394  49.1975 0061731 261.9313 114.0627 14.23229566628251"}}, "geometry": {"type": "Point", "coordinates": [-125.10115441479785, 27.81103034405664]}}, {"type": "Feature", "properties": {"norad_id": 36278, "name": "FENGYUN 1C DEB", "group": "fengyun-1c-debris", "lat": -64.46857895116194, "lon": 54.62675425380003, "alt_km": 829.5529826544262, "timestamp": "2025-12-02T06:27:53.301853+00:00", "meta": {"OBJECT_NAME": "FENGYUN 1C DEB", "OBJECT_ID": "1999-025DXF", "EPOCH": "2025-11-25T12:20:55.957056", "MEAN_MOTION": 14.17329318, "ECCENTRICITY": 0.00617636, "INCLINATION": 99.1226, "RA_OF_ASC_NODE": 247.3547, "ARG_OF_PERICENTER": 339.8905, "MEAN_ANOMALY": 19.9836, "EPHEMERIS_TYPE": 0, "CLASSIFICATION_TYPE": "U", "NORAD_CAT_ID": 36278, "ELEMENT_SET_NO": 999, "REV_AT_EPOCH": 93232, "BSTAR": 0.00056943864, "MEAN_MOTION_DOT": 1.126e-05, "MEAN_MOTION_DDOT": 0}, "tle": {"line1": "1 36278U 99025DXF 25329.51453654  .00001126  00000+0  56944-3 0  9995", "line2": "2 36278  99.1226 247.3547 0061763 339.8905  19.9836 14.17329318932323"}}, "geometry": {"type": "Point", "coordinates": [54.62675425380003, -64.46857895116194]}}, {"type": "Feature", "properties": {"norad_id": 36279, "name": "FENGYUN 1C DEB", "group": "fengyun-1c-debris", "lat": 9.849799891404409, "lon": -46.793581060400946, "alt_km": 832.3413739962316, "timestamp": "2025-12-02T06:27:53.301863+00:00", "meta": {"OBJECT_NAME": "FENGYUN 1C DEB", "OBJECT_ID": "1999-025DXG", "EPOCH": "2025-11-25T16:33:32.008320", "MEAN_MOTION": 14.14714647, "ECCENTRICITY": 0.00629921, "INCLINATION": 98.56, "RA_OF_ASC_NODE": 308.3956, "ARG_OF_PERICENTER": 103.3746, "MEAN_ANOMALY": 257.4461, "EPHEMERIS_TYPE": 0, "CLASSIFICATION_TYPE": "U", "NORAD_CAT_ID": 36279, "ELEMENT_SET_NO": 999, "REV_AT_EPOCH": 88798, "BSTAR": 0.00016006279, "MEAN_MOTION_DOT": 2.73e-06, "MEAN_MOTION_DDOT": 0}, "tle": {"line1": "1 36279U 99025DXG 25329.68995380  .00000273  00000+0  16006-3 0  9998", "line2": "2 36279  98.5600 308.3956 0062992 103.3746 257.4461 14.14714647887981"}}, "geometry": {"type": "Point", "coordinates": [-46.793581060400946, 9.849799891404409]}}, {"type": "Feature", "properties": {"norad_id": 36280, "name": "FENGYUN 1C DEB", "group": "fengyun-1c-debris", "lat": -56.784926026109616, "lon": 171.90125065912773, "alt_km": 904.1710439226608, "timestamp": "2025-12-02T06:27:53.301873+00:00", "meta": {"OBJECT_NAME": "FENGYUN 1C DEB", "OBJECT_ID": "1999-025DXH", "EPOCH": "2025-12-01T19:57:36.223200", "MEAN_MOTION": 14.09684234, "ECCENTRICITY": 0.0063727, "INCLINATION": 98.768, "RA_OF_ASC_NODE": 5.1085, "ARG_OF_PERICENTER": 96.1087, "MEAN_ANOMALY": 81.1977, "EPHEMERIS_TYPE": 0, "CLASSIFICATION_TYPE": "U", "NORAD_CAT_ID": 36280, "ELEMENT_SET_NO": 999, "REV_AT_EPOCH": 86200, "BSTAR": 0.0010089, "MEAN_MOTION_DOT": 1.761e-05, "MEAN_MOTION_DDOT": 0}, "tle": {"line1": "1 36280U 99025DXH 25335.83166925  .00001761  00000+0  10089-2 0  9996", "line2": "2 36280  98.7680   5.1085 0063727  96.1087  81.1977 14.09684234862004"}}, "geometry": {"type": "Point", "coordinates": [171.90125065912773, -56.784926026109616]}}, {"type": "Feature", "properties": {"norad_id": 36281, "name": "FENGYUN 1C DEB", "group": "fengyun-1c-debris", "lat": -63.05284109647896, "lon": 60.051313685803876, "alt_km": 1097.0457514659993, "timestamp": "2025-12-02T06:27:53.301883+00:00", "meta": {"OBJECT_NAME": "FENGYUN 1C DEB", "OBJECT_ID": "1999-025DXJ", "EPOCH": "2025-11-29T11:58:14.046816", "MEAN_MOTION": 13.60151984, "ECCENTRICITY": 0.02886142, "INCLINATION": 99.2576, "RA_OF_ASC_NODE": 256.1398, "ARG_OF_PERICENTER": 145.1966, "MEAN_ANOMALY": 216.8431, "EPHEMERIS_TYPE": 0, "CLASSIFICATION_TYPE": "U", "NORAD_CAT_ID": 36281, "ELEMENT_SET_NO": 999, "REV_AT_EPOCH": 84337, "BSTAR": 0.0024820914, "MEAN_MOTION_DOT": 2.406e-05, "MEAN_MOTION_DDOT": 0}, "tle": {"line1": "1 36281U 99025DXJ 25333.49877369  .00002406  00000+0  24821-2 0  9994", "line2": "2 36281  99.2576 256.1398 0288614 145.1966 216.8431 13.60151984843373"}}, "geometry": {"type": "Point", "coordinates": [60.051313685803876, -63.05284109647896]}}, {"type": "Feature", "properties": {"norad_id": 36283, "name": "FENGYUN 1C DEB", "group": "fengyun-1c-debris", "lat": -10.426049941218542, "lon": -59.18473599230921, "alt_km": 556.7919257724043, "timestamp": "2025-12-02T06:27:53.301893+00:00", "meta": {"OBJECT_NAME": "FENGYUN 1C DEB", "OBJECT_ID": "1999-025DXL", "EPOCH": "2025-11-28T03:35:45.168576", "MEAN_MOTION": 15.05092252, "ECCENTRICITY": 0.00695379, "INCLINATION": 99.4205, "RA_OF_ASC_NODE": 294.0447, "ARG_OF_PERICENTER": 95.6406, "MEAN_ANOMALY": 265.275, "EPHEMERIS_TYPE": 0, "CLASSIFICATION_TYPE": "U", "NORAD_CAT_ID": 36283, "ELEMENT_SET_NO": 999, "REV_AT_EPOCH": 66446, "BSTAR": 0.0018499593, "MEAN_MOTION_DOT": 0.00027782, "MEAN_MOTION_DDOT": 0}, "tle": {"line1": "1 36283U 99025DXL 25332.14982834  .00027782  00000+0  18500-2 0  9992", "line2": "2 36283  99.4205 294.0447 0069537  95.6406 265.2750 15.05092252664467"}}, "geometry": {"type": "Point", "coordinates": [-59.18473599230921, -10.426049941218542]}}, {"type": "Feature", "properties": {"norad_id": 36644, "name": "FENGYUN 1C DEB", "group": "fengyun-1c-debris", "lat": 73.51793219741161, "lon": -33.63456190067893, "alt_km": 1075.4940553073984, "timestamp": "2025-12-02T06:27:53.301903+00:00", "meta": {"OBJECT_NAME": "FENGYUN 1C DEB", "OBJECT_ID": "1999-025DXN", "EPOCH": "2025-11-26T15:39:07.759296", "MEAN_MOTION": 13.59124847, "ECCENTRICITY": 0.02860442, "INCLINATION": 98.4214, "RA_OF_ASC_NODE": 111.4857, "ARG_OF_PERICENTER": 222.436, "MEAN_ANOMALY": 135.4347, "EPHEMERIS_TYPE": 0, "CLASSIFICATION_TYPE": "U", "NORAD_CAT_ID": 36644, "ELEMENT_SET_NO": 999, "REV_AT_EPOCH": 61349, "BSTAR": 0.0017692716, "MEAN_MOTION_DOT": 1.666e-05, "MEAN_MOTION_DDOT": 0}, "tle": {"line1": "1 36644U 99025DXN 25330.65217314  .00001666  00000+0  17693-2 0  9996", "line2": "2 36644  98.4214 111.4857 0286044 222.4360 135.4347 13.59124847613497"}}, "geometry": {"type": "Point", "coordinates": [-33.63456190067893, 73.51793219741161]}}]}